     2.10           G: GLONASS NAV DATA                     RINEX VERSION / TYPE
teqc  2015Jun23                         20220401 01:25:41UTCPGM / RUN BY / DATE
Linux 2.4.21-27.ELsmp|Opteron|gcc -static|Linux x86_64|=+   COMMENT
  2022     3     8   -1.117587089539D-08                    CORR TO SYSTEM TIME
                                                            END OF HEADER
23 22  3  9 16 15  0.0-3.295019268990D-05-9.094947017729D-13 5.760000000000D+04
   -1.964482617188D+04 9.709692001343D-01-1.862645149231D-09 0.000000000000D+00
    1.405008789062D+04-6.192598342896D-01-0.000000000000D+00 3.000000000000D+00
   -8.227046386719D+03-3.377268791199D+00-0.000000000000D+00 0.000000000000D+00
 3 22  3  9 16 15  0.0 5.280878394842D-05 9.094947017729D-13 5.760000000000D+04
    7.342436035156D+03 2.145118713379D-01 0.000000000000D+00 0.000000000000D+00
    2.441904492188D+04 1.416835784912D-01-0.000000000000D+00 5.000000000000D+00
   -1.364169921875D+03 3.561263084412D+00 9.313225746155D-10 0.000000000000D+00
 2 22  3  9 16 15  0.0 5.119508132339D-04 9.094947017729D-13 5.760000000000D+04
   -1.923071289062D+03-3.951082229614D-01 9.313225746155D-10 0.000000000000D+00
    2.051213085938D+04-2.026877403259D+00 0.000000000000D+00-4.000000000000D+00
    1.512974560547D+04 2.700023651123D+00-9.313225746155D-10 0.000000000000D+00
 4 22  3  9 16 15  0.0 1.311479136348D-04 1.818989403546D-12 5.760000000000D+04
    1.214315722656D+04 7.243871688843D-01-0.000000000000D+00 0.000000000000D+00
    1.470493115234D+04 2.211014747620D+00-0.000000000000D+00 6.000000000000D+00
   -1.691449609375D+04 2.436708450317D+00 2.793967723846D-09 0.000000000000D+00
14 22  3  9 16 15  0.0 7.519591599703D-05 0.000000000000D+00 5.760000000000D+04
    1.108483740234D+04-2.544477462769D+00-0.000000000000D+00 0.000000000000D+00
    1.244781591797D+04-7.193117141724D-01-0.000000000000D+00-7.000000000000D+00
   -1.929962548828D+04-1.925835609436D+00 2.793967723846D-09 0.000000000000D+00
17 22  3  9 16 15  0.0 5.081323906779D-04 2.728484105319D-12 5.760000000000D+04
   -1.862601562500D+03-1.912635803223D+00 9.313225746155D-10 0.000000000000D+00
    1.503697656250D+04 2.063644409180D+00 0.000000000000D+00 4.000000000000D+00
    2.052061083984D+04-1.689233779907D+00-9.313225746155D-10 0.000000000000D+00
24 22  3  9 16 15  0.0 8.360110223293D-05 1.818989403546D-12 5.760000000000D+04
   -1.510999560547D+04-5.587797164917D-01-9.313225746155D-10 0.000000000000D+00
    1.933151660156D+04 7.930679321289D-01 0.000000000000D+00 2.000000000000D+00
    6.983106445312D+03-3.413810729980D+00-9.313225746155D-10 0.000000000000D+00
13 22  3  9 16 15  0.0-1.923739910126D-05-0.000000000000D+00 5.775000000000D+04
   -8.887420410156D+03-2.962265968323D+00-1.862645149231D-09 0.000000000000D+00
    8.806965332031D+03-6.847410202026D-01-0.000000000000D+00-2.000000000000D+00
   -2.224906347656D+04 9.135332107544D-01 9.313225746155D-10 0.000000000000D+00
23 22  3  9 16 45  0.0-3.295205533504D-05-9.094947017729D-13 5.940000000000D+04
   -1.752725439453D+04 1.336839675903D+00-1.862645149231D-09 0.000000000000D+00
    1.226134375000D+04-1.374233245850D+00-0.000000000000D+00 3.000000000000D+00
   -1.390982128906D+04-2.895966529846D+00 0.000000000000D+00 0.000000000000D+00
 3 22  3  9 16 45  0.0 5.281064659357D-05 9.094947017729D-13 5.940000000000D+04
    7.470408203125D+03-1.094903945923D-01 9.313225746155D-10 0.000000000000D+00
    2.390952636719D+04-6.905107498169D-01-0.000000000000D+00 5.000000000000D+00
    5.016147460938D+03 3.482132911682D+00 0.000000000000D+00 0.000000000000D+00
 2 22  3  9 16 45  0.0 5.119536072016D-04 9.094947017729D-13 5.940000000000D+04
   -3.086732421875D+03-9.110679626465D-01 9.313225746155D-10 0.000000000000D+00
    1.641874560547D+04-2.475837707520D+00 0.000000000000D+00-4.000000000000D+00
    1.934612597656D+04 1.954632759094D+00-9.313225746155D-10 0.000000000000D+00
 4 22  3  9 16 45  0.0 1.311507076025D-04 1.818989403546D-12 5.940000000000D+04
    1.352990478516D+04 7.754335403442D-01-0.000000000000D+00 0.000000000000D+00
    1.802138574219D+04 1.453101158142D+00-0.000000000000D+00 6.000000000000D+00
   -1.193014599609D+04 3.065361976624D+00 1.862645149231D-09 0.000000000000D+00
17 22  3  9 16 45  0.0 5.081379786134D-04 2.728484105319D-12 5.940000000000D+04
   -4.735411132812D+03-1.269743919373D+00 0.000000000000D+00 0.000000000000D+00
    1.866129443359D+04 1.914696693420D+00 0.000000000000D+00 4.000000000000D+00
    1.672592626953D+04-2.499792098999D+00-9.313225746155D-10 0.000000000000D+00
24 22  3  9 16 45  0.0 8.360482752323D-05 1.818989403546D-12 5.940000000000D+04
   -1.550781054688D+04 9.224224090576D-02-9.313225746155D-10 0.000000000000D+00
    2.023945605469D+04 1.819906234741D-01 0.000000000000D+00 2.000000000000D+00
    6.476723632812D+02-3.579859733582D+00-0.000000000000D+00 0.000000000000D+00
13 22  3  9 16 45  0.0-1.923833042383D-05-0.000000000000D+00 5.994000000000D+04
   -1.402222900391D+04-2.693667411804D+00-1.862645149231D-09 0.000000000000D+00
    8.003237792969D+03-2.155971527100D-01-0.000000000000D+00-2.000000000000D+00
   -1.976762792969D+04 1.825811386108D+00 0.000000000000D+00 0.000000000000D+00
14 22  3  9 16 45  0.0 7.519591599703D-05 0.000000000000D+00 6.009000000000D+04
    6.070458007812D+03-2.984310150146D+00-9.313225746155D-10 0.000000000000D+00
    1.142830419922D+04-3.884220123291D-01-0.000000000000D+00-7.000000000000D+00
   -2.197470019531D+04-1.027186393738D+00 1.862645149231D-09 0.000000000000D+00
23 22  3  9 17 15  0.0-3.295484930277D-05-9.094947017729D-13 6.120000000000D+04
   -1.499955468750D+04 1.425397872925D+00-1.862645149231D-09 0.000000000000D+00
    9.116814453125D+03-2.105912208557D+00 0.000000000000D+00 3.000000000000D+00
   -1.851797900391D+04-2.190999984741D+00 0.000000000000D+00 0.000000000000D+00
 3 22  3  9 17 15  0.0 5.281344056129D-05 9.094947017729D-13 6.120000000000D+04
    6.832067871094D+03-6.259326934814D-01 9.313225746155D-10 0.000000000000D+00
    2.202601904297D+04-1.368916511536D+00-0.000000000000D+00 5.000000000000D+00
    1.101039648438D+04 3.135167121887D+00-0.000000000000D+00 0.000000000000D+00
 2 22  3  9 17 15  0.0 5.119573324919D-04 9.094947017729D-13 6.120000000000D+04
   -5.218470214844D+03-1.452676773071D+00 9.313225746155D-10 0.000000000000D+00
    1.177310302734D+04-2.636343955994D+00 0.000000000000D+00-4.000000000000D+00
    2.207603173828D+04 1.058970451355D+00-1.862645149231D-09 0.000000000000D+00
 4 22  3  9 17 15  0.0 1.311535015702D-04 1.818989403546D-12 6.120000000000D+04
    1.478041845703D+04 5.708541870117D-01 0.000000000000D+00 0.000000000000D+00
    1.989554150391D+04 6.278438568115D-01-0.000000000000D+00 6.000000000000D+00
   -6.022185546875D+03 3.456322669983D+00 1.862645149231D-09 0.000000000000D+00
14 22  3  9 17 15  0.0 7.519684731960D-05 0.000000000000D+00 6.120000000000D+04
    5.113784179688D+02-3.142149925232D+00-1.862645149231D-09 0.000000000000D+00
    1.111140087891D+04 4.503440856934D-02-0.000000000000D+00-7.000000000000D+00
   -2.294980712891D+04-4.926109313965D-02 1.862645149231D-09 0.000000000000D+00
17 22  3  9 17 15  0.0 5.081426352262D-04 2.728484105319D-12 6.120000000000D+04
   -6.433764160156D+03-6.268405914307D-01-0.000000000000D+00 0.000000000000D+00
    2.175706835938D+04 1.479318618774D+00 0.000000000000D+00 4.000000000000D+00
    1.163739990234D+04-3.117448806763D+00-9.313225746155D-10 0.000000000000D+00
24 22  3  9 17 15  0.0 8.360762149096D-05 1.818989403546D-12 6.120000000000D+04
   -1.489114843750D+04 5.557394027710D-01-1.862645149231D-09 0.000000000000D+00
    1.989089697266D+04-5.877351760864D-01 0.000000000000D+00 2.000000000000D+00
   -5.737817871094D+03-3.469016075134D+00-0.000000000000D+00 0.000000000000D+00
13 22  3  9 17 15  0.0-1.923926174641D-05-0.000000000000D+00 6.144000000000D+04
   -1.841900439453D+04-2.150457382202D+00-1.862645149231D-09 0.000000000000D+00
    7.973862792969D+03 1.592493057251D-01 0.000000000000D+00-2.000000000000D+00
   -1.576066308594D+04 2.597579002380D+00-0.000000000000D+00 0.000000000000D+00
18 22  3  9 17 15  0.0 1.097591593862D-04 9.094947017729D-13 6.219000000000D+04
    4.707228515625D+03-1.470683097839D+00 1.862645149231D-09 0.000000000000D+00
    1.166953369141D+04 2.662535667419D+00 0.000000000000D+00-3.000000000000D+00
    2.221548291016D+04-1.082291603088D+00-9.313225746155D-10 0.000000000000D+00
 4 22  3  9 17 45  0.0 1.311562955379D-04 1.818989403546D-12 6.300000000000D+04
    1.543679296875D+04 1.207952499390D-01 0.000000000000D+00 0.000000000000D+00
    2.031131933594D+04-1.483182907104D-01-0.000000000000D+00 6.000000000000D+00
    3.516562500000D+02 3.579720497131D+00 9.313225746155D-10 0.000000000000D+00
 3 22  3  9 17 45  0.0 5.281530320644D-05 9.094947017729D-13 6.300000000000D+04
    5.150421875000D+03-1.252651214600D+00 9.313225746155D-10 0.000000000000D+00
    1.912269677734D+04-1.813196182251D+00-0.000000000000D+00 5.000000000000D+00
    1.615793701172D+04 2.547458648682D+00-9.313225746155D-10 0.000000000000D+00
14 22  3  9 17 45  0.0 7.519684731960D-05 0.000000000000D+00 6.300000000000D+04
   -5.057432128906D+03-2.995136260986D+00-1.862645149231D-09 0.000000000000D+00
    1.158970214844D+04 4.772853851318D-01 0.000000000000D+00-7.000000000000D+00
   -2.214986865234D+04 9.322767257690D-01 9.313225746155D-10 0.000000000000D+00
17 22  3  9 17 45  0.0 5.081482231617D-04 2.728484105319D-12 6.300000000000D+04
   -7.058007324219D+03-9.311580657959D-02-9.313225746155D-10 0.000000000000D+00
    2.383858691406D+04 7.982425689697D-01 0.000000000000D+00 4.000000000000D+00
    5.648097656250D+03-3.494090080261D+00-9.313225746155D-10 0.000000000000D+00
18 22  3  9 17 45  0.0 1.097582280636D-04 9.094947017729D-13 6.300000000000D+04
    2.564763183594D+03-9.047641754150D-01 9.313225746155D-10 0.000000000000D+00
    1.636579003906D+04 2.504469871521D+00 0.000000000000D+00-3.000000000000D+00
    1.943634521484D+04-1.985555648804D+00-9.313225746155D-10 0.000000000000D+00
